{"features":[{"geometry":{"type":"Polygon","coordinates":[[[103.5916,7.3073],[103.7047,7.3688],[103.1527,7.7261],[103.0381,7.8188],[102.718,7.4445],[102.4798,7.173],[102.4215,7.0104],[102.3498,6.8355],[102.5632,6.8855],[103.0965,7.0522],[103.5916,7.3073]]],"crs":null},"type":"Feature","properties":{"name_eng":"Thailand-Malaysia Joint Development Area","name_th":"พื้นที่พัฒนาร่วม ไทย-มาเลเซีย"}},{"geometry":{"type":"Polygon","coordinates":[[[100.1205,6.4227],[100.1174,6.4336],[100.119,6.4427],[100.1008,6.4881],[100.1011,6.4953],[100.0888,6.4938],[100.0846,6.4965],[100.0905,6.5006],[100.0928,6.5125],[100.0991,6.5216],[100.0976,6.5364],[100.088,6.5516],[100.0774,6.5578],[100.0683,6.5223],[100.0623,6.5142],[100.0485,6.521],[100.0089,6.5591],[99.9897,6.5938],[99.992,6.609],[99.9779,6.6039],[99.9731,6.5968],[99.9578,6.5906],[99.951,6.5841],[99.948,6.6033],[99.9509,6.6099],[99.9499,6.618],[99.9534,6.6207],[99.9607,6.6166],[99.969,6.6209],[99.9726,6.6306],[99.9643,6.6377],[99.9541,6.6672],[99.9489,6.6672],[99.9461,6.6624],[99.9358,6.657],[99.9204,6.675],[99.9227,6.6919],[99.9155,6.7025],[99.9072,6.7056],[99.9139,6.7116],[99.9156,6.723],[99.8767,6.7211],[99.8684,6.7383],[99.8693,6.7438],[99.8444,6.7719],[99.8419,6.7783],[99.8253,6.7757],[99.8128,6.77],[99.8068,6.7738],[99.7997,6.8076],[99.7795,6.8379],[99.7719,6.8427],[99.7679,6.8359],[99.7576,6.8381],[99.7542,6.8326],[99.7501,6.8403],[99.7229,6.8545],[99.72,6.8616],[99.7086,6.8582],[99.7017,6.8597],[99.702,6.8689],[99.6969,6.8695],[99.6853,6.8953],[99.6785,6.8988],[99.6807,6.9066],[99.6863,6.9045],[99.6875,6.9066],[99.6835,6.9195],[99.6818,6.9449],[99.6917,6.9547],[99.6996,6.9535],[99.7065,6.9619],[99.6995,6.97],[99.6925,6.968],[99.6867,6.9599],[99.6832,6.9602],[99.6829,6.9769],[99.6769,6.9814],[99.6692,7.0001],[99.6737,7.0081],[99.6792,7.0084],[99.6845,7.0138],[99.6775,7.0207],[99.6704,7.0428],[99.6758,7.0536],[99.6866,7.0615],[99.6946,7.0763],[99.6987,7.0765],[99.7004,7.0674],[99.7029,7.0674],[99.7163,7.091],[99.7125,7.1009],[99.7273,7.1113],[99.7351,7.112],[99.7379,7.1184],[99.7358,7.1256],[99.7283,7.1299],[99.7203,7.1281],[99.7013,7.1321],[99.6894,7.124],[99.6815,7.1236],[99.6677,7.1138],[99.6657,7.1162],[99.6711,7.1252],[99.6643,7.1508],[99.6595,7.1621],[99.6459,7.167],[99.6362,7.1619],[99.6137,7.139],[99.6026,7.1369],[99.5996,7.1387],[99.6015,7.1438],[99.5981,7.1567],[99.5946,7.1571],[99.5853,7.1468],[99.5823,7.1489],[99.5577,7.2089],[99.5404,7.2316],[99.5215,7.2493],[99.5226,7.2594],[99.5284,7.2665],[99.5317,7.2805],[99.5259,7.2966],[99.5096,7.306],[99.4869,7.306],[99.4857,7.2946],[99.4704,7.2842],[99.4293,7.3001],[99.4165,7.2963],[99.4192,7.2988],[99.4173,7.306],[99.4069,7.3169],[99.4035,7.317],[99.4021,7.3059],[99.3984,7.3046],[99.3948,7.3075],[99.3764,7.3389],[99.3706,7.3391],[99.3619,7.3495],[99.3632,7.3575],[99.3389,7.3796],[99.3482,7.4065],[99.3454,7.4117],[99.3369,7.4108],[99.3448,7.4152],[99.3443,7.4412],[99.3273,7.4932],[99.3094,7.5124],[99.3021,7.5077],[99.2969,7.4975],[99.2846,7.5155],[99.2883,7.5218],[99.2943,7.5128],[99.2988,7.5154],[99.2945,7.5188],[99.2952,7.5227],[99.3013,7.5169],[99.3041,7.5182],[99.308,7.5335],[99.3126,7.5365],[99.3055,7.5496],[99.2947,7.5608],[99.2992,7.5684],[99.2947,7.5735],[99.2938,7.5703],[99.29,7.5821],[99.2817,7.5938],[99.2789,7.6019],[99.2813,7.6219],[99.2773,7.6293],[99.2737,7.6293],[99.2703,7.6219],[99.2652,7.6223],[99.2613,7.6167],[99.2516,7.6203],[99.2464,7.626],[99.2354,7.6273],[99.2326,7.6312],[99.2378,7.6337],[99.254,7.6312],[99.2513,7.6396],[99.2634,7.6618],[99.2534,7.661],[99.2436,7.6754],[99.2365,7.6781],[99.2276,7.6712],[99.2141,7.6783],[99.2063,7.6747],[99.2046,7.6691],[99.1966,7.6711],[99.197,7.6769],[99.2035,7.681],[99.2063,7.6873],[99.2048,7.6935],[99.1948,7.6917],[99.1784,7.7035],[99.1697,7.7284],[99.1571,7.7405],[99.1522,7.7426],[99.1463,7.7404],[99.1417,7.7446],[99.1381,7.7511],[99.135,7.7724],[99.1257,7.7724],[99.1176,7.767],[99.1088,7.7112],[99.0992,7.6931],[99.0842,7.6905],[99.0611,7.6973],[99.0516,7.6971],[99.0413,7.7032],[99.0203,7.7639],[99.0269,7.7757],[99.0222,7.781],[99.0227,7.7855],[99.0284,7.7962],[99.0318,7.7971],[99.0195,7.8146],[99.0172,7.8233],[99.0222,7.824],[99.0243,7.8286],[99.043,7.8338],[99.048,7.853],[99.0602,7.8518],[99.0657,7.8556],[99.0672,7.8709],[99.0633,7.8769],[99.0584,7.8781],[99.0644,7.9105],[99.0574,7.9102],[99.05,7.901],[99.0269,7.8898],[99.0206,7.8996],[99.0189,7.9193],[99.0152,7.9258],[99.0052,7.9314],[99.0002,7.9415],[98.9833,7.9382],[98.9797,7.9403],[98.9726,7.9325],[98.9429,7.9873],[98.9446,7.9935],[98.951,7.9967],[98.9509,8.0049],[98.9351,8.0235],[98.9191,8.036],[98.9241,8.0465],[98.9197,8.0506],[98.899,8.0376],[98.8956,8.0311],[98.8823,8.021],[98.8651,8.0295],[98.8592,8.0276],[98.8497,8.0151],[98.8498,8.0112],[98.8462,8.0132],[98.8417,8.0106],[98.8433,8.0018],[98.8347,8.0079],[98.8376,8.0111],[98.8343,8.0165],[98.8264,8.016],[98.8288,8.0228],[98.8146,8.0391],[98.8024,8.0452],[98.7745,8.0438],[98.7717,8.0386],[98.7737,8.0243],[98.7693,8.0212],[98.7648,8.0236],[98.765,8.0376],[98.761,8.0454],[98.7491,8.0548],[98.7435,8.0658],[98.7445,8.0736],[98.7394,8.0766],[98.7469,8.0901],[98.7456,8.1131],[98.7482,8.1214],[98.7511,8.1212],[98.7571,8.1296],[98.7558,8.1369],[98.7353,8.1359],[98.7411,8.142],[98.7386,8.1568],[98.7463,8.1643],[98.7514,8.1824],[98.7483,8.1995],[98.7356,8.2379],[98.7307,8.2388],[98.7281,8.2492],[98.725,8.25],[98.7218,8.2404],[98.7234,8.2328],[98.7161,8.2203],[98.7075,8.2242],[98.7165,8.2392],[98.7189,8.264],[98.7128,8.2656],[98.7151,8.2774],[98.7068,8.2876],[98.7065,8.2997],[98.711,8.3141],[98.7072,8.315],[98.685,8.304],[98.6799,8.2972],[98.6606,8.2868],[98.6498,8.2728],[98.6363,8.2858],[98.6351,8.2761],[98.6312,8.2842],[98.6281,8.2825],[98.6252,8.2914],[98.6279,8.2929],[98.6242,8.2983],[98.6301,8.299],[98.6255,8.3061],[98.6256,8.3136],[98.6312,8.3157],[98.6332,8.32],[98.6311,8.3266],[98.6366,8.3285],[98.6377,8.34],[98.633,8.3451],[98.6399,8.3506],[98.6336,8.3793],[98.629,8.3805],[98.6092,8.3799],[98.607,8.3654],[98.6034,8.3701],[98.5995,8.3697],[98.5943,8.3624],[98.5828,8.3581],[98.5752,8.3619],[98.5683,8.3554],[98.56,8.3568],[98.5574,8.3551],[98.559,8.3504],[98.5494,8.3404],[98.5391,8.3426],[98.5364,8.3364],[98.529,8.3321],[98.5238,8.3328],[98.5165,8.3254],[98.5122,8.3265],[98.5072,8.3419],[98.494,8.3406],[98.4923,8.3383],[98.4986,8.3249],[98.4971,8.32],[98.49,8.3167],[98.4714,8.318],[98.4685,8.3025],[98.4598,8.2935],[98.455,8.2764],[98.4616,8.2512],[98.4598,8.2465],[98.4553,8.2453],[98.4584,8.2444],[98.4549,8.2434],[98.4573,8.2386],[98.4649,8.2399],[98.4685,8.2191],[98.4636,8.2121],[98.4547,8.2072],[98.4445,8.1925],[98.4354,8.1636],[98.4434,8.1507],[98.4404,8.1443],[98.428,8.1352],[98.4235,8.1412],[98.4262,8.145],[98.4215,8.1576],[98.4068,8.163],[98.4075,8.1531],[98.4013,8.1453],[98.404,8.1368],[98.3977,8.1384],[98.3871,8.1268],[98.3738,8.1396],[98.372,8.155],[98.3679,8.1612],[98.3669,8.1716],[98.3625,8.1752],[98.3643,8.1793],[98.3607,8.1824],[98.36,8.1888],[98.3518,8.1907],[98.3355,8.1803],[98.328,8.1862],[98.3286,8.2021],[98.3244,8.2052],[98.3167,8.1993],[98.306,8.204],[98.3025,8.2017],[98.2917,8.208],[98.2822,8.2048],[98.2842,8.1971],[98.2864,8.2],[98.3003,8.1986],[98.3095,8.1873],[98.316,8.1859],[98.3323,8.1727],[98.337,8.1729],[98.3415,8.1475],[98.3478,8.1429],[98.3462,8.1232],[98.354,8.1242],[98.3539,8.1179],[98.3502,8.1145],[98.3601,8.1131],[98.3671,8.1203],[98.3733,8.119],[98.3763,8.0993],[98.3865,8.0851],[98.3977,8.0812],[98.4028,8.0848],[98.402,8.082],[98.4064,8.0801],[98.4117,8.0852],[98.4176,8.086],[98.425,8.0953],[98.4251,8.1007],[98.4277,8.0971],[98.4336,8.0986],[98.4352,8.0937],[98.4401,8.093],[98.4392,8.0882],[98.4349,8.0865],[98.4344,8.0756],[98.4368,8.072],[98.444,8.0706],[98.4434,8.0657],[98.4354,8.066],[98.4298,8.0553],[98.4328,8.0404],[98.4305,8.0392],[98.427,8.0432],[98.4186,8.0415],[98.4113,8.0265],[98.4106,8.0026],[98.4211,7.989],[98.4262,7.9874],[98.4213,7.9841],[98.418,7.9894],[98.4078,7.9907],[98.3958,7.9829],[98.3957,7.9741],[98.3926,7.9739],[98.3983,7.9682],[98.3937,7.9635],[98.3933,7.9569],[98.3976,7.9541],[98.3951,7.9515],[98.399,7.9426],[98.4124,7.9287],[98.4131,7.917],[98.4174,7.9085],[98.4299,7.9027],[98.4322,7.9112],[98.442,7.9144],[98.4379,7.8952],[98.4454,7.8832],[98.4429,7.8795],[98.4401,7.8827],[98.434,7.8779],[98.4315,7.8793],[98.4298,7.8746],[98.4377,7.8696],[98.4386,7.8658],[98.4339,7.866],[98.4256,7.8753],[98.4168,7.8698],[98.4139,7.8715],[98.4139,7.8768],[98.4093,7.8778],[98.3971,7.8714],[98.4022,7.8631],[98.3961,7.8602],[98.3916,7.8522],[98.3974,7.8395],[98.4105,7.8375],[98.4025,7.8347],[98.4024,7.8303],[98.4054,7.8288],[98.4009,7.8242],[98.4064,7.8188],[98.4023,7.8123],[98.4108,7.8084],[98.4127,7.8012],[98.4083,7.7993],[98.4071,7.8044],[98.3951,7.8139],[98.3906,7.8118],[98.3891,7.8056],[98.379,7.8368],[98.3657,7.839],[98.3463,7.8248],[98.3331,7.7892],[98.3386,7.7798],[98.3343,7.7749],[98.3298,7.776],[98.3187,7.7701],[98.3185,7.7614],[98.311,7.7578],[98.3054,7.7604],[98.3027,7.7582],[98.3062,7.7673],[98.3042,7.7765],[98.2891,7.7756],[98.297,7.7337],[98.3587,7.7354],[98.4753,7.7505],[98.6153,7.7455],[98.7669,7.6555],[98.8653,7.6122],[99.1986,7.4005],[99.2536,7.2972],[99.3585,7.2238],[99.3919,7.0739],[99.3969,7.0639],[99.4753,6.9822],[99.4985,6.7956],[99.5386,6.6488],[99.6486,6.5056],[99.6986,6.5022],[99.8418,6.5672],[99.9536,6.5389],[100.0839,6.4255],[100.1205,6.4227]]],"crs":null},"type":"Feature","properties":{"name_eng":"Internal Water","name_th":"น่านน้ำภายใน"}},{"geometry":{"type":"Polygon","coordinates":[[[102.0856,6.2464],[101.9949,7.3338],[100.7337,8.3991],[100.2352,9.3448],[100.0935,9.6037],[100.0752,9.4737],[100.0268,9.392],[99.9602,9.3003],[99.8835,9.2087],[99.8772,9.2075],[99.8763,9.2041],[99.8758,9.1406],[99.8819,9.1254],[99.8914,9.1247],[99.9092,9.099],[99.9128,9.0838],[99.9099,9.0731],[99.9137,9.0233],[99.9228,9.0079],[99.9289,9.0057],[99.9213,9.0049],[99.9167,8.997],[99.9134,8.9406],[99.9188,8.8799],[99.9332,8.8006],[99.9412,8.7183],[99.9513,8.6635],[99.9525,8.6323],[99.9615,8.6036],[99.9724,8.5953],[99.9726,8.5889],[99.9785,8.5873],[99.9853,8.5946],[99.9977,8.5894],[99.995,8.5893],[100.0065,8.5813],[100.0108,8.5743],[100.0047,8.5672],[100.0142,8.5649],[100.0442,8.5241],[100.062,8.4729],[100.0714,8.4556],[100.0734,8.4406],[100.0877,8.4145],[100.0923,8.4166],[100.1119,8.4018],[100.1267,8.3984],[100.1381,8.3878],[100.152,8.3873],[100.1559,8.3921],[100.1729,8.3867],[100.1531,8.4176],[100.1486,8.4388],[100.1523,8.4552],[100.1562,8.4593],[100.1546,8.4623],[100.159,8.4633],[100.1621,8.4758],[100.1649,8.4749],[100.1644,8.4782],[100.1664,8.4762],[100.1656,8.4871],[100.1595,8.5007],[100.1489,8.5098],[100.1129,8.518],[100.1209,8.5209],[100.1351,8.5206],[100.1497,8.5156],[100.1824,8.491],[100.2059,8.4594],[100.2189,8.4321],[100.2595,8.3162],[100.2836,8.2268],[100.3491,7.8686],[100.4329,7.5205],[100.4743,7.393],[100.4987,7.3371],[100.5226,7.2925],[100.5415,7.2639],[100.559,7.2492],[100.5663,7.2383],[100.5797,7.23],[100.5865,7.215],[100.5966,7.2149],[100.6138,7.1862],[100.6189,7.1814],[100.6226,7.1824],[100.6902,7.0774],[100.7375,7.0154],[100.7655,6.9853],[100.7908,6.9656],[100.8127,6.9538],[100.8298,6.9515],[100.8374,6.96],[100.8489,6.9622],[100.9275,6.895],[100.986,6.863],[101.0119,6.8543],[101.0284,6.8533],[101.1044,6.8622],[101.1622,6.861],[101.2179,6.8742],[101.2364,6.8859],[101.25,6.9023],[101.2639,6.9012],[101.2732,6.892],[101.2842,6.8912],[101.2843,6.8812],[101.2886,6.8779],[101.3092,6.8864],[101.3252,6.8748],[101.3329,6.875],[101.3382,6.8834],[101.346,6.8885],[101.3455,6.8978],[101.3416,6.8997],[101.3415,6.9118],[101.33,6.9109],[101.3245,6.9278],[101.3142,6.922],[101.3066,6.9293],[101.3013,6.9276],[101.2948,6.938],[101.2849,6.9377],[101.2878,6.9471],[101.2827,6.9487],[101.2744,6.941],[101.273,6.9443],[101.2668,6.9442],[101.2563,6.9381],[101.2553,6.9404],[101.2501,6.9382],[101.2438,6.9314],[101.2459,6.9339],[101.2423,6.9359],[101.2368,6.9265],[101.2444,6.9424],[101.2813,6.9525],[101.3104,6.9403],[101.3387,6.9155],[101.3628,6.9017],[101.4204,6.8881],[101.4423,6.8872],[101.4624,6.8816],[101.4815,6.8711],[101.4927,6.8706],[101.5156,6.8625],[101.5219,6.8617],[101.5263,6.8652],[101.5458,6.8454],[101.5573,6.8458],[101.6294,6.7232],[101.6409,6.7154],[101.6663,6.6679],[101.7198,6.5849],[101.7654,6.5175],[101.8084,6.4611],[101.8176,6.4517],[101.8326,6.4454],[101.8485,6.4316],[101.8565,6.4274],[101.8604,6.4289],[101.8744,6.4245],[101.9123,6.3796],[101.9525,6.3389],[102.0087,6.296],[102.0856,6.2464]]],"crs":null},"type":"Feature","properties":{"name_eng":"Internal Water","name_th":"น่านน้ำภายใน"}},{"geometry":{"type":"Polygon","coordinates":[[[97.7242,9.6021],[97.6237,9.6253],[97.5096,9.6584],[97.4888,9.6249],[97.4788,9.615],[97.4446,9.5216],[97.436,9.4905],[97.4289,9.4382],[97.4318,9.3547],[97.456,9.2796],[97.4531,9.2541],[97.4432,9.2244],[97.4218,9.1904],[97.4033,9.1083],[97.4018,9.0644],[97.4118,8.9779],[97.409,8.9652],[97.389,8.9453],[97.3619,8.9269],[97.3277,8.8929],[97.2736,8.8036],[97.2707,8.7767],[97.2508,8.7157],[97.2379,8.6249],[97.2351,8.5582],[97.2394,8.5114],[97.2394,8.4533],[97.2451,8.405],[97.265,8.3496],[97.312,8.2659],[97.3377,8.2276],[97.3705,8.1864],[97.4061,8.1566],[97.4417,8.1338],[97.5273,8.0969],[97.5942,8.0827],[97.7026,8.0841],[97.7653,8.0983],[97.8152,8.1154],[97.885,8.1509],[97.8736,8.0983],[97.8722,8.0486],[97.865,8.0103],[97.8693,7.9676],[97.865,7.8383],[97.9007,7.7317],[97.8992,7.6905],[97.9278,7.5853],[97.9192,7.4459],[97.9192,7.4004],[97.9406,7.3221],[97.9577,7.2822],[98.0047,7.2082],[98.0788,7.1413],[98.1401,7.0986],[98.1857,7.0801],[98.2442,7.0673],[98.294,7.0588],[98.3525,7.063],[98.4123,7.0759],[98.505,7.1129],[98.5734,7.157],[98.6589,7.0844],[98.6874,7.073],[98.6988,7.0388],[98.7373,6.9691],[98.7601,6.9349],[98.7986,6.8893],[98.8869,6.8281],[98.8385,6.7739],[98.8071,6.7169],[98.78,6.6457],[98.7715,6.6072],[98.7644,6.5573],[98.7644,6.4533],[98.7829,6.3834],[98.8128,6.3192],[98.8485,6.2608],[98.8627,6.2408],[98.8773,6.2278],[99.1007,6.2997],[99.0794,6.3192],[99.0423,6.3449],[99.0152,6.3706],[98.9782,6.429],[98.9582,6.4789],[98.9611,6.5473],[98.9796,6.6143],[99.0095,6.6699],[99.0252,6.6899],[99.0679,6.7312],[99.095,6.7497],[99.1121,6.7597],[99.1763,6.7753],[99.2718,6.7796],[99.2974,6.7696],[99.3088,6.7711],[99.3031,6.8736],[99.209,6.9918],[99.2062,7.0132],[99.1919,7.0317],[99.1777,7.0317],[99.1492,7.0132],[99.0836,6.9947],[99.0352,6.9961],[99.0166,6.999],[98.9639,7.0161],[98.9169,7.0517],[98.8841,7.0901],[98.8784,7.1058],[98.8713,7.1271],[98.8641,7.1712],[98.8613,7.2154],[98.8214,7.2239],[98.78,7.2438],[98.7316,7.2808],[98.6888,7.3662],[98.686,7.3819],[98.6874,7.4658],[98.6332,7.5056],[98.6005,7.544],[98.5734,7.5469],[98.5691,7.5298],[98.5492,7.49],[98.5149,7.4487],[98.5078,7.4117],[98.4921,7.3662],[98.485,7.3562],[98.4394,7.3093],[98.3995,7.2823],[98.3739,7.2723],[98.3339,7.2623],[98.314,7.2609],[98.2898,7.2623],[98.2513,7.2723],[98.2028,7.2951],[98.1871,7.3079],[98.143,7.3548],[98.1301,7.3776],[98.123,7.4032],[98.1216,7.426],[98.123,7.4971],[98.1387,7.5511],[98.1515,7.5682],[98.1586,7.5824],[98.1586,7.5895],[98.1159,7.6365],[98.0974,7.6791],[98.0902,7.7971],[98.0803,7.8127],[98.0688,7.8639],[98.0688,7.9321],[98.0746,7.9719],[98.066,8.0046],[98.0646,8.0245],[98.0688,8.0742],[98.076,8.1026],[98.0945,8.1353],[98.0703,8.185],[98.066,8.2091],[98.0631,8.2332],[98.0646,8.2631],[98.0703,8.2915],[98.0674,8.3071],[98.0589,8.3198],[98.0532,8.378],[98.0375,8.4164],[98.0318,8.4419],[98.0061,8.4958],[98.0061,8.5441],[98.0147,8.6164],[98.0361,8.6604],[98.0261,8.6973],[98.0291,8.7469],[98.0332,8.771],[98.0489,8.8135],[98.0318,8.8631],[98.0275,8.8858],[98.0275,8.9142],[98.0332,8.9496],[98.046,8.9893],[98.0646,9.019],[98.0532,9.0516],[98.0475,9.087],[98.0589,9.1281],[98.0532,9.1324],[98.009,9.1324],[98.0232,9.0799],[98.0247,9.0615],[98.0047,8.9864],[97.9791,8.9567],[97.9762,8.9425],[97.9933,8.9198],[98.0118,8.8858],[98.0175,8.8504],[98.0147,8.7923],[97.9976,8.7341],[97.9577,8.6831],[97.922,8.6547],[97.8935,8.6391],[97.8536,8.6249],[97.8893,8.5356],[97.8964,8.4958],[97.885,8.4391],[97.8707,8.4121],[97.8494,8.3823],[97.7924,8.3241],[97.7624,8.3],[97.7111,8.2758],[97.657,8.2702],[97.6085,8.273],[97.57,8.2815],[97.533,8.3056],[97.4973,8.3369],[97.4831,8.3539],[97.4631,8.4022],[97.4417,8.4689],[97.4417,8.4901],[97.4289,8.5568],[97.4332,8.5739],[97.4332,8.6036],[97.4417,8.6276],[97.446,8.6675],[97.4417,8.6887],[97.4546,8.7455],[97.4645,8.7653],[97.5002,8.8107],[97.523,8.8305],[97.5543,8.8504],[97.5828,8.8631],[97.5885,8.8886],[97.6284,8.9567],[97.6113,9.0233],[97.6042,9.0743],[97.6042,9.1054],[97.6427,9.1805],[97.6812,9.2301],[97.6983,9.2301],[97.7111,9.2471],[97.6669,9.2966],[97.6299,9.3646],[97.6256,9.441],[97.6384,9.4806],[97.6569,9.5146],[97.7211,9.5881],[97.7242,9.6021]]],"crs":null},"type":"Feature","properties":{"name_eng":"Contiguous Zone","name_th":"เขตต่อเนื่อง"}},{"geometry":{"type":"Polygon","coordinates":[[[97.5096,9.6584],[97.4405,9.6784],[96.4904,9.7602],[95.5877,9.6352],[95.606,9.2904],[95.6257,8.7551],[95.6518,8.1645],[95.694,7.9604],[95.5274,7.7854],[96.6056,7.0988],[97.8971,6.3656],[98.0221,5.9522],[98.8773,6.2278],[98.8627,6.2408],[98.8485,6.2608],[98.8128,6.3192],[98.7957,6.3535],[98.7715,6.419],[98.7644,6.4533],[98.7629,6.4875],[98.7644,6.5573],[98.7715,6.6072],[98.78,6.6457],[98.7915,6.6785],[98.8071,6.7169],[98.8385,6.7739],[98.8869,6.8281],[98.7986,6.8893],[98.7601,6.9349],[98.7373,6.9691],[98.6988,7.0388],[98.6874,7.073],[98.6589,7.0844],[98.5734,7.157],[98.505,7.1129],[98.4494,7.0887],[98.4123,7.0759],[98.3525,7.063],[98.294,7.0588],[98.1857,7.0801],[98.1401,7.0986],[98.0788,7.1413],[98.0047,7.2082],[97.9577,7.2822],[97.9406,7.3221],[97.9192,7.4004],[97.9192,7.4459],[97.9278,7.5853],[97.8992,7.6905],[97.9007,7.7317],[97.865,7.8383],[97.8693,7.9676],[97.865,8.0103],[97.8722,8.0486],[97.8736,8.0983],[97.885,8.1509],[97.8152,8.1154],[97.7653,8.0983],[97.7026,8.0841],[97.5942,8.0827],[97.5273,8.0969],[97.4417,8.1338],[97.4061,8.1566],[97.3705,8.1864],[97.3377,8.2276],[97.312,8.2659],[97.265,8.3496],[97.2451,8.405],[97.2394,8.4533],[97.2394,8.5114],[97.2351,8.5582],[97.2379,8.6249],[97.2508,8.7157],[97.2707,8.7767],[97.2736,8.8036],[97.3277,8.8929],[97.3619,8.9269],[97.389,8.9453],[97.409,8.9652],[97.4118,8.9779],[97.4018,9.0644],[97.4033,9.1083],[97.4218,9.1904],[97.4432,9.2244],[97.4531,9.2541],[97.456,9.2796],[97.4318,9.3547],[97.4289,9.4382],[97.436,9.4905],[97.4446,9.5216],[97.4788,9.615],[97.4888,9.6249],[97.5096,9.6584]]],"crs":null},"type":"Feature","properties":{"name_eng":"Exclusive Economic Zone","name_th":"เขตเศรษฐกิจจำเพาะ"}},{"geometry":{"type":"Polygon","coordinates":[[[98.2822,8.2048],[98.2801,8.2368],[98.2825,8.2387],[98.282,8.2482],[98.2561,8.3695],[98.2355,8.4365],[98.2148,8.5275],[98.2051,8.5535],[98.2165,8.5872],[98.2202,8.5876],[98.2273,8.5804],[98.2388,8.5865],[98.242,8.5979],[98.2374,8.6059],[98.2382,8.615],[98.2304,8.6212],[98.2326,8.6252],[98.2438,8.6299],[98.2467,8.6396],[98.2464,8.6597],[98.2418,8.6719],[98.2362,8.716],[98.2346,8.7213],[98.2224,8.7288],[98.2208,8.7387],[98.2274,8.7338],[98.2385,8.7357],[98.2518,8.7443],[98.2615,8.7628],[98.2609,8.7931],[98.2526,8.8096],[98.2603,8.8147],[98.2655,8.8263],[98.2636,8.8593],[98.2783,8.8667],[98.2804,8.875],[98.2991,8.9019],[98.3121,8.9092],[98.3055,8.9249],[98.3058,8.9402],[98.3218,8.9701],[98.3306,8.9774],[98.3399,9.0055],[98.3264,9.0177],[98.3248,9.0262],[98.3189,9.0315],[98.32,9.0408],[98.3328,9.0592],[98.3519,9.0699],[98.3523,9.103],[98.3433,9.1204],[98.3392,9.1364],[98.3408,9.1484],[98.3196,9.1805],[98.3172,9.2019],[98.3276,9.2219],[98.3637,9.2617],[98.3688,9.2767],[98.3663,9.2809],[98.3615,9.2793],[98.3612,9.2841],[98.3703,9.2905],[98.3745,9.2883],[98.3788,9.2937],[98.381,9.3198],[98.3916,9.3364],[98.3974,9.4032],[98.4013,9.4038],[98.4075,9.3987],[98.4175,9.4082],[98.4294,9.4388],[98.4348,9.495],[98.4562,9.5635],[98.4614,9.5621],[98.4667,9.5671],[98.4697,9.5651],[98.4675,9.5589],[98.4596,9.5577],[98.4732,9.5329],[98.4823,9.5326],[98.4978,9.5479],[98.4984,9.5524],[98.5071,9.5533],[98.5104,9.5589],[98.5355,9.5686],[98.5353,9.5777],[98.5233,9.5812],[98.508,9.5956],[98.4918,9.5916],[98.48,9.593],[98.4677,9.5994],[98.4631,9.625],[98.464,9.6288],[98.4706,9.6249],[98.4792,9.6345],[98.4957,9.6161],[98.5028,9.6248],[98.5005,9.6344],[98.5087,9.6437],[98.5106,9.6535],[98.503,9.6585],[98.4983,9.6523],[98.4956,9.6613],[98.4918,9.6618],[98.4893,9.6793],[98.4847,9.6811],[98.4847,9.6861],[98.4916,9.6851],[98.4931,9.6816],[98.4978,9.681],[98.4974,9.6772],[98.5088,9.6722],[98.5198,9.6814],[98.529,9.6828],[98.5355,9.6933],[98.5412,9.6954],[98.5394,9.7072],[98.5451,9.7109],[98.5458,9.7168],[98.5571,9.7308],[98.5497,9.746],[98.5382,9.744],[98.5308,9.7506],[98.5207,9.7483],[98.5081,9.7367],[98.5005,9.7396],[98.5024,9.7444],[98.5071,9.7447],[98.5074,9.7511],[98.5127,9.7536],[98.5068,9.771],[98.507,9.7835],[98.5118,9.7837],[98.5193,9.7901],[98.5253,9.787],[98.5336,9.7908],[98.5443,9.7889],[98.5542,9.7928],[98.5436,9.8014],[98.5359,9.8008],[98.5375,9.8063],[98.5221,9.8349],[98.5161,9.8531],[98.5203,9.8568],[98.531,9.8574],[98.5276,9.8679],[98.5359,9.8831],[98.5503,9.8875],[98.5568,9.8769],[98.5662,9.8905],[98.5716,9.905],[98.5694,9.9225],[98.5895,9.9313],[98.5923,9.9367],[98.586,9.9423],[98.5881,9.9573],[98.5922,9.9582],[98.5948,9.9698],[98.5925,9.9753],[98.6013,9.9824],[98.6037,9.9945],[98.6168,10.0227],[98.634,10.0455],[98.6439,10.0721],[98.6552,10.0856],[98.6517,10.0984],[98.6621,10.0996],[98.6781,10.124],[98.6791,10.1369],[98.6929,10.1712],[98.6907,10.182],[98.7163,10.2295],[98.7299,10.2775],[98.7369,10.2875],[98.7376,10.3046],[98.7522,10.3226],[98.75,10.3455],[98.7556,10.3883],[98.7581,10.3952],[98.7673,10.4037],[98.7704,10.4192],[98.7677,10.4067],[98.754,10.3896],[98.7425,10.3212],[98.7333,10.3107],[98.7003,10.2131],[98.6708,10.1706],[98.6602,10.1681],[98.6531,10.1622],[98.641,10.13],[98.6453,10.113],[98.618,10.0528],[98.602,10.0301],[98.5802,9.9873],[98.5699,9.9613],[98.5666,9.9422],[98.5512,9.9289],[98.5394,9.9316],[98.5304,9.9255],[98.5244,9.925],[98.5183,9.9272],[98.5132,9.9348],[98.5025,9.9371],[98.4948,9.9525],[98.4718,9.9571],[98.4508,9.9656],[98.418,9.9642],[98.4039,9.9557],[98.3824,9.9303],[98.3339,9.8836],[98.284,9.7847],[98.237,9.6617],[98.227,9.6433],[98.2057,9.6178],[98.1786,9.5952],[98.1144,9.5528],[98.0617,9.533],[98.0033,9.5245],[97.9748,9.5245],[97.8536,9.5768],[97.7242,9.6021],[97.7211,9.5881],[97.6569,9.5146],[97.6384,9.4806],[97.6256,9.441],[97.6299,9.3646],[97.6669,9.2966],[97.7111,9.2471],[97.6983,9.2301],[97.6812,9.2301],[97.6427,9.1805],[97.6042,9.1054],[97.6042,9.0743],[97.6113,9.0233],[97.6284,8.9567],[97.5885,8.8886],[97.5828,8.8631],[97.5543,8.8504],[97.523,8.8305],[97.5002,8.8107],[97.4645,8.7653],[97.4546,8.7455],[97.4417,8.6887],[97.446,8.6675],[97.4417,8.6276],[97.4332,8.6036],[97.4332,8.5739],[97.4289,8.5568],[97.4417,8.4901],[97.4417,8.4689],[97.4631,8.4022],[97.4831,8.3539],[97.4973,8.3369],[97.533,8.3056],[97.57,8.2815],[97.6342,8.2702],[97.7111,8.2758],[97.7382,8.2872],[97.7624,8.3],[97.7924,8.3241],[97.8494,8.3823],[97.8707,8.4121],[97.885,8.4391],[97.8964,8.4958],[97.8893,8.5356],[97.8536,8.6249],[97.8935,8.6391],[97.922,8.6547],[97.9577,8.6831],[97.9976,8.7341],[98.0147,8.7923],[98.0175,8.8504],[98.0118,8.8858],[97.9933,8.9198],[97.9762,8.9425],[97.9791,8.9567],[98.0047,8.9864],[98.0247,9.0615],[98.0232,9.0799],[98.009,9.1324],[98.0532,9.1324],[98.0589,9.1281],[98.0475,9.087],[98.0532,9.0516],[98.0646,9.019],[98.046,8.9893],[98.0332,8.9496],[98.0275,8.9142],[98.0275,8.8858],[98.0318,8.8631],[98.0489,8.8135],[98.0332,8.771],[98.0291,8.7469],[98.0261,8.6973],[98.0361,8.6604],[98.0147,8.6164],[98.0061,8.5441],[98.0061,8.4958],[98.0318,8.4419],[98.0375,8.4164],[98.0532,8.378],[98.0589,8.3198],[98.0674,8.3071],[98.0703,8.2915],[98.0646,8.2631],[98.0631,8.2332],[98.066,8.2091],[98.0703,8.185],[98.0945,8.1353],[98.076,8.1026],[98.0688,8.0742],[98.0646,8.0387],[98.066,8.0046],[98.0746,7.9719],[98.0688,7.9321],[98.0688,7.8639],[98.0803,7.8127],[98.0902,7.7971],[98.0974,7.6791],[98.1159,7.6365],[98.1586,7.5895],[98.1586,7.5824],[98.1515,7.5682],[98.1387,7.5511],[98.123,7.4971],[98.123,7.4032],[98.1301,7.3776],[98.143,7.3548],[98.1715,7.3221],[98.2028,7.2951],[98.2513,7.2723],[98.2698,7.2666],[98.2898,7.2623],[98.3339,7.2623],[98.3739,7.2723],[98.3995,7.2823],[98.4394,7.3093],[98.4636,7.3321],[98.4921,7.3662],[98.5078,7.4117],[98.5149,7.4487],[98.5492,7.49],[98.5691,7.5298],[98.5734,7.5469],[98.6005,7.544],[98.6332,7.5056],[98.6874,7.4658],[98.686,7.3819],[98.6888,7.3662],[98.7316,7.2808],[98.78,7.2438],[98.8214,7.2239],[98.8613,7.2154],[98.8641,7.1712],[98.8713,7.1271],[98.8784,7.1058],[98.8841,7.0901],[98.9169,7.0517],[98.9639,7.0161],[99.0166,6.999],[99.0352,6.9961],[99.0836,6.9947],[99.1492,7.0132],[99.1777,7.0317],[99.1919,7.0317],[99.2062,7.0132],[99.209,6.9918],[99.3031,6.8736],[99.3088,6.7711],[99.2974,6.7696],[99.2718,6.7796],[99.1763,6.7753],[99.1121,6.7597],[99.095,6.7497],[99.0679,6.7312],[99.0252,6.6899],[99.0095,6.6699],[98.9796,6.6143],[98.9611,6.5473],[98.9582,6.4789],[98.9782,6.429],[99.0152,6.3706],[99.0423,6.3449],[99.0794,6.3192],[99.1007,6.2997],[99.1086,6.3023],[99.3186,6.2739],[99.4552,6.3088],[99.5086,6.4839],[99.5535,6.5056],[99.6503,6.4772],[99.8802,6.5355],[99.9969,6.4255],[100.0839,6.4255],[99.9536,6.5389],[99.8418,6.5672],[99.6986,6.5022],[99.6486,6.5056],[99.5386,6.6488],[99.4985,6.7956],[99.4753,6.9822],[99.3969,7.0639],[99.3919,7.0739],[99.3585,7.2238],[99.2536,7.2972],[99.1986,7.4005],[98.8653,7.6122],[98.7669,7.6555],[98.6153,7.7455],[98.4753,7.7505],[98.3587,7.7354],[98.297,7.7337],[98.2869,7.7796],[98.2912,7.7871],[98.2846,7.7883],[98.2847,7.7919],[98.2937,7.794],[98.2986,7.8032],[98.2959,7.8111],[98.2976,7.8192],[98.2897,7.8243],[98.2942,7.8306],[98.2912,7.8524],[98.2888,7.8582],[98.2826,7.8594],[98.2818,7.8647],[98.2766,7.864],[98.2719,7.8697],[98.2756,7.8756],[98.2719,7.8815],[98.2645,7.8804],[98.261,7.8857],[98.2643,7.8932],[98.2715,7.8899],[98.2724,7.8864],[98.29,7.8869],[98.2965,7.9079],[98.2755,7.924],[98.2621,7.9234],[98.2616,7.9344],[98.258,7.9354],[98.2626,7.9486],[98.2686,7.9466],[98.2816,7.9521],[98.2833,7.9615],[98.2767,7.9704],[98.2765,7.9822],[98.2703,7.9876],[98.2854,7.9852],[98.2928,8.0034],[98.2888,8.0287],[98.284,8.0316],[98.2836,8.0358],[98.276,8.0339],[98.2721,8.0383],[98.278,8.0462],[98.2756,8.052],[98.278,8.0563],[98.2703,8.0713],[98.2728,8.0786],[98.2866,8.0853],[98.2901,8.0829],[98.2966,8.0879],[98.297,8.0984],[98.3021,8.1109],[98.2959,8.155],[98.2822,8.2048]]],"crs":null},"type":"Feature","properties":{"name_eng":"Territorial Sea","name_th":"ทะเลอาณาเขต"}},{"geometry":{"type":"Polygon","coordinates":[[[99.5201,10.8969],[99.5084,10.8848],[99.5098,10.8728],[99.4979,10.8615],[99.5009,10.8666],[99.4969,10.8754],[99.4841,10.8883],[99.4755,10.8853],[99.4667,10.8714],[99.4529,10.8736],[99.4414,10.8713],[99.4412,10.8651],[99.4338,10.8557],[99.4351,10.8407],[99.4272,10.8074],[99.4118,10.7732],[99.4133,10.7628],[99.4081,10.7612],[99.4047,10.7514],[99.3997,10.75],[99.3994,10.745],[99.3936,10.7444],[99.38,10.7086],[99.3736,10.7084],[99.367,10.7033],[99.3591,10.6912],[99.3601,10.6796],[99.3681,10.6776],[99.3655,10.6712],[99.3586,10.6654],[99.3578,10.6765],[99.3481,10.6836],[99.3339,10.681],[99.3206,10.671],[99.3074,10.6503],[99.3062,10.6422],[99.3013,10.6376],[99.2965,10.6192],[99.2858,10.6112],[99.2817,10.6026],[99.2803,10.5908],[99.2834,10.5833],[99.2753,10.5718],[99.2742,10.5588],[99.2777,10.5517],[99.2736,10.543],[99.2644,10.5409],[99.2612,10.5372],[99.2521,10.5423],[99.2443,10.5422],[99.2389,10.5361],[99.237,10.5224],[99.2449,10.5065],[99.249,10.505],[99.2675,10.5157],[99.2587,10.4997],[99.2435,10.4933],[99.2381,10.4963],[99.232,10.4951],[99.2278,10.486],[99.2279,10.4734],[99.2417,10.4474],[99.245,10.4444],[99.2496,10.4454],[99.263,10.4285],[99.2753,10.4232],[99.2761,10.4151],[99.2839,10.4118],[99.2798,10.3986],[99.2843,10.3834],[99.2842,10.3635],[99.2779,10.3548],[99.2725,10.3531],[99.2703,10.3581],[99.2634,10.3578],[99.262,10.3634],[99.2532,10.3628],[99.2386,10.3441],[99.23,10.3559],[99.2166,10.3662],[99.206,10.3725],[99.1965,10.3734],[99.1844,10.371],[99.169,10.3628],[99.1635,10.3654],[99.161,10.3564],[99.1464,10.3446],[99.1541,10.3307],[99.1494,10.3085],[99.1591,10.2881],[99.168,10.2851],[99.1691,10.2782],[99.1891,10.2753],[99.1859,10.2706],[99.1919,10.2657],[99.2018,10.2722],[99.2059,10.2712],[99.2076,10.2654],[99.2031,10.2504],[99.2107,10.2373],[99.2182,10.2371],[99.2181,10.2292],[99.221,10.2268],[99.2292,10.2281],[99.2387,10.2381],[99.2474,10.235],[99.2417,10.226],[99.2296,10.2198],[99.2266,10.2143],[99.2221,10.2169],[99.213,10.2096],[99.2095,10.2125],[99.2057,10.2109],[99.205,10.2165],[99.2019,10.2179],[99.1926,10.2131],[99.1826,10.1759],[99.1767,10.1748],[99.1688,10.1496],[99.1623,10.1496],[99.155,10.1431],[99.1475,10.1205],[99.1507,10.0922],[99.1569,10.0819],[99.157,10.0773],[99.152,10.0724],[99.1533,10.0671],[99.1679,10.0447],[99.1748,10.0407],[99.1821,10.0431],[99.1825,10.0363],[99.1798,10.0305],[99.1734,10.0292],[99.1733,10.0238],[99.1796,10.0187],[99.1762,10.0075],[99.1702,10.0074],[99.165,10.0131],[99.1599,10.0109],[99.1506,9.9878],[99.1517,9.9728],[99.1605,9.948],[99.1621,9.9156],[99.1571,9.8977],[99.1657,9.8597],[99.1626,9.857],[99.1629,9.8476],[99.1489,9.8441],[99.1392,9.8231],[99.1466,9.7415],[99.1581,9.7112],[99.162,9.6818],[99.1685,9.6617],[99.1904,9.626],[99.21,9.6033],[99.2102,9.5684],[99.2445,9.4801],[99.2663,9.4454],[99.3034,9.4076],[99.3138,9.3894],[99.313,9.3849],[99.3075,9.3957],[99.2968,9.4048],[99.2937,9.4039],[99.2798,9.3917],[99.2744,9.3767],[99.2634,9.3705],[99.2624,9.3608],[99.2401,9.3541],[99.2381,9.3478],[99.2211,9.3402],[99.2166,9.331],[99.2157,9.3058],[99.2199,9.2881],[99.2266,9.2771],[99.2241,9.2567],[99.2392,9.2361],[99.244,9.2353],[99.2502,9.2286],[99.2575,9.2334],[99.2574,9.2269],[99.2669,9.2183],[99.2764,9.2212],[99.2856,9.2318],[99.2906,9.2305],[99.2941,9.2369],[99.3011,9.2353],[99.3112,9.2453],[99.3133,9.2423],[99.3207,9.2457],[99.3225,9.2418],[99.3163,9.2357],[99.3232,9.2341],[99.3158,9.2272],[99.3143,9.2205],[99.3284,9.2208],[99.3366,9.2268],[99.336,9.2227],[99.3439,9.2195],[99.3388,9.2144],[99.3385,9.2094],[99.3475,9.2095],[99.3604,9.2165],[99.3611,9.1982],[99.3681,9.1993],[99.3661,9.1944],[99.3698,9.1951],[99.3701,9.1893],[99.375,9.1995],[99.3763,9.1942],[99.4143,9.2058],[99.4665,9.1986],[99.4773,9.2111],[99.4869,9.2106],[99.4961,9.2191],[99.4961,9.2279],[99.5073,9.2573],[99.528,9.2834],[99.5413,9.2857],[99.5772,9.2705],[99.6103,9.2679],[99.6429,9.3023],[99.6483,9.3051],[99.6675,9.3035],[99.6751,9.3117],[99.6767,9.3094],[99.681,9.3114],[99.6839,9.3181],[99.6812,9.3214],[99.6859,9.3304],[99.6818,9.3378],[99.6891,9.3344],[99.6886,9.3289],[99.6926,9.3255],[99.7018,9.3219],[99.7046,9.3246],[99.7112,9.3183],[99.7254,9.3121],[99.7317,9.3128],[99.7361,9.3222],[99.7451,9.3294],[99.742,9.3257],[99.7511,9.3179],[99.7608,9.3152],[99.7695,9.3227],[99.7788,9.3099],[99.7832,9.3106],[99.7857,9.3174],[99.7851,9.3111],[99.7913,9.3095],[99.7957,9.3174],[99.7972,9.3087],[99.8012,9.3195],[99.8059,9.3148],[99.7993,9.3054],[99.817,9.297],[99.8249,9.2983],[99.8302,9.3103],[99.8374,9.3036],[99.839,9.2944],[99.8435,9.2939],[99.8424,9.2859],[99.8463,9.2823],[99.845,9.2632],[99.8481,9.2542],[99.8598,9.2524],[99.8637,9.2484],[99.8643,9.239],[99.8661,9.2364],[99.8705,9.2375],[99.8706,9.2294],[99.8787,9.2187],[99.8806,9.2073],[99.9602,9.3003],[100.0268,9.392],[100.0752,9.4737],[100.0935,9.6037],[100.0835,9.7354],[100.0751,9.7654],[99.9918,9.9453],[99.8418,10.1269],[99.4235,10.5019],[99.3836,10.5619],[99.4103,10.6986],[99.5335,10.7768],[99.5402,10.7985],[99.5201,10.8969]]],"crs":null},"type":"Feature","properties":{"name_eng":"Internal Water","name_th":"น่านน้ำภายใน"}},{"geometry":{"type":"Polygon","coordinates":[[[100.8979,12.0804],[100.8779,12.0874],[100.8551,12.0902],[100.8224,12.1014],[100.7753,12.1252],[100.714,12.1645],[100.6855,12.1925],[100.4432,12.1841],[100.4418,12.1449],[100.3919,12.0242],[100.3706,12.0032],[100.352,11.9358],[100.3364,11.9064],[100.3036,11.8642],[100.2922,11.8432],[100.2694,11.8221],[100.2565,11.8053],[100.2594,11.773],[100.2565,11.7126],[100.2423,11.6367],[100.2295,11.6016],[100.1981,11.5482],[100.1924,11.5089],[100.1625,11.4358],[100.1212,11.3626],[100.1012,11.3401],[100.0713,11.3078],[100.0128,11.2698],[100.0071,11.2318],[99.9972,11.2093],[99.9858,11.1966],[99.9943,11.1755],[99.9786,11.1164],[99.9829,11.0657],[99.9815,11.0151],[99.9615,10.9404],[99.9345,10.8813],[99.9416,10.8573],[99.9444,10.8277],[99.9402,10.6938],[99.9104,10.6063],[100.1363,10.4042],[100.3381,10.1597],[100.4568,9.904],[100.4846,9.8049],[100.491,9.7195],[100.5924,9.5344],[101.056,8.6559],[102.3846,7.5341],[102.4271,7.0255],[102.4798,7.173],[102.718,7.4445],[103.0381,7.8188],[102.7132,8.4854],[102.4382,8.7021],[102.2716,8.7853],[101.98,9.1854],[101.8883,9.477],[101.8132,9.702],[101.7716,9.8103],[102.6006,11.1488],[102.5317,11.1295],[102.3358,11.2477],[102.2668,11.2832],[102.0485,11.5515],[101.9198,11.7688],[101.8301,11.9812],[101.7758,12.0102],[101.7288,11.999],[101.6362,11.9962],[101.5692,12.0102],[101.515,12.0271],[101.4737,12.0453],[101.4366,12.0691],[101.4053,12.0958],[101.3639,12.0972],[101.2514,12.1407],[101.2214,12.1575],[101.1829,12.1266],[101.1145,12.0958],[101.0903,12.093],[101.0589,12.0832],[101.0034,12.0761],[100.8979,12.0804]]],"crs":null},"type":"Feature","properties":{"name_eng":"Exclusive Economic Zone","name_th":"เขตเศรษฐกิจจำเพาะ"}},{"geometry":{"type":"Polygon","coordinates":[[[102.9089,11.6507],[102.901,11.6869],[102.9071,11.7131],[102.8894,11.7613],[102.8827,11.7711],[102.8801,11.7707],[102.881,11.7743],[102.8757,11.7832],[102.7741,11.9128],[102.7734,11.9243],[102.776,11.9284],[102.7819,11.9294],[102.7848,11.9451],[102.781,11.9578],[102.7662,11.9831],[102.7707,11.9849],[102.7714,11.9915],[102.7649,12.0075],[102.7626,12.0255],[102.7499,12.0438],[102.6715,12.1084],[102.6603,12.1209],[102.6363,12.1323],[102.6318,12.1405],[102.6226,12.1463],[102.6119,12.1478],[102.6319,12.1593],[102.6458,12.1545],[102.645,12.1597],[102.6488,12.1669],[102.6408,12.1801],[102.6109,12.2011],[102.5992,12.2043],[102.5928,12.2118],[102.5797,12.2035],[102.5696,12.2064],[102.5574,12.2054],[102.5604,12.1936],[102.5574,12.1832],[102.5669,12.1788],[102.5662,12.1742],[102.5724,12.1701],[102.5739,12.1652],[102.5649,12.1665],[102.5547,12.1619],[102.5617,12.1424],[102.5565,12.1312],[102.567,12.1172],[102.5605,12.1086],[102.5629,12.103],[102.5595,12.1012],[102.5588,12.0953],[102.5633,12.0902],[102.5736,12.0867],[102.5737,12.0781],[102.5838,12.0705],[102.589,12.0589],[102.5865,12.0462],[102.584,12.0426],[102.5793,12.0425],[102.5605,12.0494],[102.5476,12.0585],[102.5515,12.083],[102.5313,12.1143],[102.4716,12.1442],[102.4673,12.1544],[102.4682,12.1584],[102.4742,12.1608],[102.4727,12.1638],[102.4482,12.1644],[102.431,12.1693],[102.3982,12.168],[102.3926,12.1702],[102.3866,12.1809],[102.3799,12.1831],[102.3691,12.1935],[102.3549,12.1922],[102.3467,12.1992],[102.3322,12.1954],[102.3263,12.1901],[102.3275,12.1825],[102.3223,12.1802],[102.3207,12.1845],[102.3135,12.1822],[102.3062,12.1889],[102.3004,12.1858],[102.2921,12.1887],[102.2781,12.2036],[102.2773,12.2069],[102.2807,12.2097],[102.2748,12.2069],[102.2449,12.1618],[102.2382,12.0534],[102.2832,11.9468],[102.3878,11.771],[102.5298,11.5985],[102.5915,11.5619],[102.9089,11.6507]]],"crs":null},"type":"Feature","properties":{"name_eng":"Internal Water","name_th":"น่านน้ำภายใน"}},{"geometry":{"type":"Polygon","coordinates":[[[101.2499,12.442],[101.2428,12.4504],[101.2342,12.4504],[101.2029,12.4364],[101.1644,12.4364],[101.1687,12.4182],[101.1559,12.3916],[101.1359,12.3719],[101.1302,12.3551],[101.1103,12.3397],[101.0846,12.3117],[101.0219,12.2809],[100.9221,12.2851],[100.8651,12.3117],[100.8409,12.3355],[100.8224,12.3439],[100.7867,12.3733],[100.7739,12.3916],[100.2166,12.3831],[100.2138,12.3271],[100.2394,12.2766],[100.2437,12.2528],[100.2394,12.1799],[100.228,12.1589],[100.2238,12.135],[100.1867,12.0775],[100.1696,12.0565],[100.1639,12.0256],[100.1425,11.9948],[100.1154,11.9625],[100.0912,11.9414],[100.0713,11.9344],[100.067,11.9204],[100.0371,11.8895],[100.0413,11.8783],[100.0428,11.714],[100.0342,11.6817],[100.0143,11.6438],[99.9843,11.6086],[99.9801,11.5496],[99.9715,11.5271],[99.9344,11.4751],[99.9102,11.4512],[99.8518,11.4147],[99.8176,11.4034],[99.819,11.3331],[99.8076,11.2979],[99.7748,11.236],[99.7748,11.2234],[99.7805,11.2121],[99.7705,11.1319],[99.7748,11.1164],[99.7763,11.0488],[99.7677,11.0179],[99.7463,10.97],[99.7178,10.9334],[99.7221,10.8714],[99.7335,10.8404],[99.7449,10.7728],[99.7306,10.7093],[99.7221,10.6727],[99.6694,10.6135],[99.6293,10.5878],[99.989,10.2656],[100.1649,10.0525],[100.266,9.8346],[100.2841,9.7702],[100.2922,9.6617],[100.4138,9.4396],[100.8948,8.5275],[102.1898,7.434],[102.2549,6.6538],[102.3498,6.8355],[102.4271,7.0255],[102.3846,7.5341],[101.056,8.6559],[100.5924,9.5344],[100.491,9.7195],[100.4846,9.8049],[100.4568,9.904],[100.3381,10.1597],[100.1363,10.4042],[99.9104,10.6063],[99.9402,10.6938],[99.9444,10.8277],[99.9416,10.8573],[99.9345,10.8813],[99.9615,10.9404],[99.9815,11.0151],[99.9829,11.0657],[99.9786,11.1164],[99.9943,11.1755],[99.9858,11.1966],[99.9972,11.2093],[100.0071,11.2318],[100.0128,11.2698],[100.0713,11.3078],[100.1012,11.3401],[100.1212,11.3626],[100.1625,11.4358],[100.1924,11.5089],[100.1981,11.5482],[100.2295,11.6016],[100.2423,11.6367],[100.2565,11.7126],[100.2594,11.773],[100.2565,11.8053],[100.2694,11.8221],[100.2922,11.8432],[100.3036,11.8642],[100.3364,11.9064],[100.352,11.9358],[100.3706,12.0032],[100.3919,12.0242],[100.4418,12.1449],[100.4432,12.1841],[100.6855,12.1925],[100.714,12.1645],[100.7326,12.1519],[100.7753,12.1252],[100.8224,12.1014],[100.8551,12.0902],[100.8779,12.0874],[100.8979,12.0804],[100.9407,12.0775],[101.0034,12.0761],[101.0589,12.0832],[101.0903,12.093],[101.1145,12.0958],[101.1829,12.1266],[101.2214,12.1575],[101.2514,12.1407],[101.3639,12.0972],[101.4053,12.0958],[101.4366,12.0691],[101.4737,12.0453],[101.515,12.0271],[101.5692,12.0102],[101.6362,11.9962],[101.7288,11.999],[101.7758,12.0102],[101.8301,11.9812],[101.9198,11.7688],[102.0485,11.5515],[102.2668,11.2832],[102.3358,11.2477],[102.5317,11.1295],[102.6006,11.1488],[102.7573,11.4012],[102.5616,11.3458],[102.4356,11.4217],[102.3982,11.441],[102.2158,11.665],[102.1015,11.8578],[102.0332,12.0195],[102.0399,12.1299],[101.9911,12.1323],[101.9169,12.1617],[101.8884,12.1841],[101.8571,12.215],[101.8571,12.2234],[101.8385,12.2514],[101.8343,12.2725],[101.83,12.2767],[101.7616,12.2304],[101.7431,12.2136],[101.7274,12.2136],[101.6561,12.2024],[101.639,12.2038],[101.5963,12.2164],[101.5592,12.2346],[101.5407,12.2486],[101.4979,12.2907],[101.4894,12.3047],[101.4765,12.3005],[101.4295,12.2977],[101.381,12.3033],[101.3625,12.3131],[101.3069,12.3523],[101.2742,12.3846],[101.2613,12.4028],[101.2499,12.442]]],"crs":null},"type":"Feature","properties":{"name_eng":"Contiguous Zone","name_th":"เขตต่อเนื่อง"}},{"geometry":{"type":"Polygon","coordinates":[[[101.7483,12.7079],[101.7237,12.7054],[101.707,12.6997],[101.707,12.6967],[101.6885,12.6932],[101.6725,12.684],[101.666,12.6715],[101.6442,12.6466],[101.6461,12.6422],[101.5932,12.6535],[101.5668,12.648],[101.5639,12.6449],[101.566,12.6319],[101.5565,12.6272],[101.507,12.6317],[101.4987,12.6305],[101.4973,12.6271],[101.4892,12.632],[101.4741,12.6331],[101.4369,12.6269],[101.4233,12.6142],[101.4239,12.5905],[101.4204,12.5897],[101.4184,12.5833],[101.4131,12.5866],[101.4154,12.5907],[101.4102,12.5956],[101.3706,12.6186],[101.2864,12.6542],[101.2348,12.6654],[101.1579,12.6709],[101.1074,12.679],[101.0906,12.6749],[101.0653,12.6745],[101.0382,12.6635],[100.9999,12.6586],[100.9729,12.6486],[100.9685,12.6445],[100.971,12.6397],[100.9636,12.6292],[100.967,12.6167],[100.9626,12.604],[100.9637,12.5952],[100.9535,12.5918],[99.9577,12.5778],[99.9636,12.569],[99.9648,12.5515],[99.9728,12.5278],[99.9775,12.5193],[99.9851,12.5144],[99.9785,12.5115],[99.9747,12.4996],[99.9768,12.4668],[99.9839,12.4513],[99.982,12.445],[99.9842,12.4396],[99.9799,12.4317],[99.9849,12.4183],[99.9949,12.4061],[100.0004,12.3767],[99.9983,12.3428],[100.0026,12.3362],[99.9992,12.331],[99.997,12.3331],[99.9941,12.3307],[99.9864,12.3152],[99.9744,12.2761],[99.9743,12.2659],[99.9815,12.2469],[100.0054,12.2225],[100.0062,12.2175],[100.0019,12.2134],[100.0098,12.2064],[100.0131,12.2079],[100.0155,12.1927],[100.0198,12.1888],[100.0089,12.178],[100.0019,12.1656],[99.9847,12.1535],[99.9804,12.1469],[99.9783,12.1485],[99.9753,12.1456],[99.9613,12.1119],[99.9675,12.1057],[99.968,12.099],[99.9622,12.0863],[99.9598,12.0849],[99.9564,12.0887],[99.9495,12.0802],[99.9463,12.0837],[99.9427,12.082],[99.8695,12.0003],[99.842,11.9593],[99.819,11.9079],[99.8125,11.8795],[99.8165,11.8658],[99.8217,11.8629],[99.8258,11.8661],[99.8237,11.8545],[99.8356,11.8427],[99.8336,11.8309],[99.8291,11.8285],[99.8287,11.8389],[99.8188,11.8392],[99.8077,11.8312],[99.8004,11.8189],[99.8015,11.7991],[99.8112,11.7873],[99.8163,11.7886],[99.8186,11.7841],[99.8135,11.7765],[99.8139,11.7839],[99.8052,11.7833],[99.7959,11.7707],[99.7968,11.7652],[99.8016,11.7649],[99.8046,11.7608],[99.803,11.7526],[99.8111,11.7378],[99.8065,11.7367],[99.8061,11.7411],[99.801,11.7388],[99.7972,11.7453],[99.7908,11.745],[99.7501,11.7099],[99.7271,11.6826],[99.7108,11.6453],[99.6791,11.5963],[99.6395,11.5197],[99.6279,11.4707],[99.6199,11.4648],[99.6144,11.4537],[99.6057,11.4181],[99.5998,11.4149],[99.5995,11.4043],[99.5851,11.3765],[99.581,11.3575],[99.5769,11.3595],[99.5727,11.3575],[99.5602,11.3353],[99.5514,11.3012],[99.5511,11.266],[99.5636,11.2279],[99.5731,11.2169],[99.5811,11.2176],[99.5785,11.2148],[99.5822,11.212],[99.5795,11.2119],[99.577,11.1987],[99.5794,11.1961],[99.5666,11.1836],[99.56,11.1889],[99.563,11.2021],[99.5535,11.206],[99.5414,11.2075],[99.5253,11.1993],[99.5116,11.1866],[99.4991,11.1689],[99.4894,11.147],[99.4864,11.1285],[99.496,11.0602],[99.5018,11.0398],[99.4991,11.0006],[99.503,10.9908],[99.4965,10.9881],[99.4915,10.9746],[99.4913,10.9388],[99.502,10.9163],[99.5108,10.916],[99.5078,10.9118],[99.5101,10.9045],[99.5195,10.899],[99.5402,10.7985],[99.5335,10.7768],[99.4103,10.6986],[99.3836,10.5619],[99.4235,10.5019],[99.8418,10.1269],[99.9918,9.9453],[100.0751,9.7654],[100.0835,9.7354],[100.0935,9.6037],[100.2352,9.3448],[100.7337,8.3991],[101.9949,7.3338],[102.0856,6.2464],[102.092,6.2368],[102.0899,6.2439],[102.1633,6.4605],[102.1566,6.4655],[102.2549,6.6538],[102.1898,7.434],[100.8948,8.5275],[100.4138,9.4396],[100.2922,9.6617],[100.2841,9.7702],[100.266,9.8346],[100.1649,10.0525],[99.989,10.2656],[99.6293,10.5878],[99.6694,10.6135],[99.7221,10.6727],[99.7306,10.7093],[99.7449,10.7728],[99.7335,10.8404],[99.7221,10.8714],[99.7178,10.9334],[99.7463,10.97],[99.7677,11.0179],[99.7763,11.0488],[99.7748,11.1164],[99.7705,11.1319],[99.7805,11.2121],[99.7748,11.2234],[99.7748,11.236],[99.8076,11.2979],[99.819,11.3331],[99.8176,11.4034],[99.8518,11.4147],[99.9102,11.4512],[99.9344,11.4751],[99.9715,11.5271],[99.9801,11.5496],[99.9843,11.6086],[100.0143,11.6438],[100.0342,11.6817],[100.0428,11.714],[100.0413,11.8783],[100.0371,11.8895],[100.067,11.9204],[100.0713,11.9344],[100.0912,11.9414],[100.1154,11.9625],[100.1425,11.9948],[100.1639,12.0256],[100.1696,12.0565],[100.1867,12.0775],[100.2238,12.135],[100.228,12.1589],[100.2394,12.1799],[100.2437,12.2528],[100.2394,12.2766],[100.2138,12.3271],[100.2166,12.3831],[100.7739,12.3916],[100.7867,12.3733],[100.8224,12.3439],[100.8409,12.3355],[100.8651,12.3117],[100.9221,12.2851],[101.0219,12.2809],[101.0846,12.3117],[101.1103,12.3397],[101.1302,12.3551],[101.1359,12.3719],[101.1559,12.3916],[101.1687,12.4182],[101.1644,12.4364],[101.2029,12.4364],[101.2342,12.4504],[101.2428,12.4504],[101.2499,12.442],[101.2613,12.4028],[101.2742,12.3846],[101.3069,12.3523],[101.3625,12.3131],[101.381,12.3033],[101.4295,12.2977],[101.4765,12.3005],[101.4894,12.3047],[101.4979,12.2907],[101.5407,12.2486],[101.5592,12.2346],[101.5763,12.2248],[101.6148,12.2108],[101.639,12.2038],[101.6561,12.2024],[101.7274,12.2136],[101.7431,12.2136],[101.7616,12.2304],[101.83,12.2767],[101.8343,12.2725],[101.8385,12.2514],[101.8571,12.2234],[101.8571,12.215],[101.8884,12.1841],[101.9169,12.1617],[101.9911,12.1323],[102.0399,12.1299],[102.0332,12.0195],[102.1015,11.8578],[102.2158,11.665],[102.3982,11.441],[102.4356,11.4217],[102.5616,11.3458],[102.7573,11.4012],[102.9095,11.6501],[102.5915,11.5619],[102.5298,11.5985],[102.3878,11.771],[102.2832,11.9468],[102.2382,12.0534],[102.2449,12.1618],[102.2748,12.2069],[102.2823,12.2129],[102.2792,12.214],[102.2815,12.2161],[102.2775,12.2232],[102.2851,12.2214],[102.2886,12.2296],[102.2799,12.2507],[102.2607,12.271],[102.2652,12.2723],[102.2657,12.2769],[102.2586,12.2889],[102.2569,12.3062],[102.217,12.3352],[102.1888,12.3703],[102.1578,12.3987],[102.1327,12.4124],[102.1268,12.4106],[102.1265,12.4045],[102.1193,12.4081],[102.1186,12.4122],[102.1258,12.4135],[102.1243,12.423],[102.107,12.4486],[102.0988,12.4577],[102.0927,12.4596],[102.0905,12.4645],[102.0625,12.4806],[102.0573,12.4804],[102.0609,12.4703],[102.0588,12.4681],[102.0521,12.4728],[102.0429,12.4727],[102.0446,12.4765],[102.0401,12.4815],[102.0459,12.4847],[102.0467,12.4902],[102.0363,12.4867],[102.0355,12.4891],[102.0431,12.4936],[102.0407,12.5014],[102.013,12.5275],[101.9796,12.542],[101.9584,12.5419],[101.9477,12.5371],[101.9511,12.5184],[101.9489,12.5165],[101.944,12.5323],[101.9287,12.5368],[101.922,12.549],[101.8993,12.5692],[101.8925,12.5727],[101.8894,12.5697],[101.8842,12.5795],[101.8857,12.5824],[101.8922,12.5817],[101.9003,12.5724],[101.9091,12.5774],[101.9049,12.5967],[101.8948,12.6031],[101.8837,12.6018],[101.885,12.5861],[101.883,12.5876],[101.8775,12.6029],[101.87,12.6077],[101.8658,12.6169],[101.8627,12.6428],[101.8565,12.6458],[101.8529,12.653],[101.8054,12.6843],[101.7747,12.6967],[101.7675,12.7036],[101.7483,12.7079]]],"crs":null},"type":"Feature","properties":{"name_eng":"Territorial Sea","name_th":"ทะเลอาณาเขต"}},{"geometry":{"type":"Polygon","coordinates":[[[100.9623,12.5952],[100.9541,12.6028],[100.9455,12.5994],[100.9372,12.6093],[100.9254,12.6065],[100.9197,12.6204],[100.9142,12.6234],[100.9143,12.6281],[100.9242,12.6285],[100.9227,12.6322],[100.928,12.6316],[100.9258,12.6375],[100.9304,12.646],[100.9178,12.6588],[100.9072,12.6624],[100.8961,12.6617],[100.8861,12.6535],[100.8714,12.6525],[100.8659,12.6488],[100.8621,12.6527],[100.8506,12.6499],[100.849,12.6553],[100.8594,12.6598],[100.8624,12.6672],[100.8558,12.6764],[100.8477,12.6761],[100.8425,12.671],[100.8407,12.6836],[100.8554,12.6936],[100.8504,12.6984],[100.8447,12.6944],[100.8382,12.698],[100.8401,12.708],[100.8342,12.714],[100.8385,12.724],[100.834,12.7333],[100.8367,12.7406],[100.8412,12.7425],[100.8407,12.7526],[100.8546,12.7545],[100.8575,12.7652],[100.8715,12.7694],[100.8802,12.7608],[100.896,12.7684],[100.9033,12.7785],[100.9132,12.8068],[100.9091,12.8292],[100.8981,12.8558],[100.8842,12.8781],[100.8561,12.9096],[100.8561,12.9183],[100.862,12.9299],[100.8657,12.9256],[100.8712,12.9258],[100.8817,12.9356],[100.8845,12.945],[100.883,12.9705],[100.893,12.975],[100.8989,12.9703],[100.9061,12.9737],[100.9205,12.9889],[100.9276,13.0067],[100.9251,13.0273],[100.9113,13.051],[100.9014,13.062],[100.8882,13.0545],[100.8783,13.0712],[100.8861,13.0765],[100.8789,13.0811],[100.8725,13.0762],[100.8719,13.0833],[100.8797,13.1101],[100.8986,13.1251],[100.9005,13.1438],[100.907,13.1476],[100.9136,13.1599],[100.9248,13.1684],[100.9295,13.1913],[100.9328,13.1922],[100.9365,13.2029],[100.9342,13.2106],[100.9362,13.2196],[100.9243,13.267],[100.9144,13.2844],[100.8975,13.302],[100.9025,13.3045],[100.9026,13.3174],[100.9101,13.3131],[100.9171,13.3148],[100.921,13.3247],[100.9194,13.3317],[100.9238,13.3345],[100.9259,13.3423],[100.936,13.339],[100.9479,13.347],[100.9647,13.3498],[100.9774,13.3584],[100.9738,13.362],[100.9783,13.3667],[100.9766,13.3707],[100.9798,13.3716],[100.977,13.3736],[100.986,13.3849],[100.9825,13.4002],[100.9679,13.4325],[100.9723,13.4663],[100.9794,13.4708],[100.9711,13.4775],[100.9514,13.4652],[100.9269,13.4635],[100.8879,13.4686],[100.8833,13.4724],[100.8328,13.4809],[100.8198,13.4878],[100.8138,13.4869],[100.8119,13.4902],[100.8049,13.4878],[100.7792,13.494],[100.7761,13.4909],[100.769,13.4955],[100.6814,13.5065],[100.6546,13.5167],[100.6314,13.5206],[100.5995,13.5474],[100.5728,13.5142],[100.5313,13.506],[100.4912,13.504],[100.4886,13.5011],[100.4788,13.5003],[100.4688,13.5027],[100.4606,13.4993],[100.4528,13.5018],[100.4307,13.4957],[100.3413,13.4856],[100.3122,13.491],[100.2817,13.5065],[100.2744,13.506],[100.2684,13.487],[100.2561,13.4774],[100.2229,13.4696],[100.2234,13.4669],[100.2074,13.4621],[100.1445,13.4472],[100.0577,13.4163],[100.0477,13.4085],[100.04,13.3948],[100.0342,13.372],[100.0256,13.3638],[100.0222,13.3617],[99.9996,13.3679],[99.9959,13.3629],[100.002,13.3545],[99.9976,13.3444],[99.9973,13.3305],[99.9782,13.3232],[99.9801,13.3207],[99.9772,13.3179],[99.9656,13.3137],[99.9624,13.309],[99.9522,13.3074],[99.9541,13.3039],[99.9505,13.282],[99.9426,13.2647],[99.9532,13.2615],[99.9659,13.2444],[99.9785,13.2418],[99.9854,13.2355],[99.9981,13.2192],[100.0058,13.1981],[100.0195,13.1844],[100.0543,13.1674],[100.0705,13.1518],[100.0639,13.1304],[100.0629,13.1087],[100.0653,13.0859],[100.071,13.0737],[100.0862,13.0596],[100.1016,13.0539],[100.111,13.0655],[100.0852,13.0279],[100.0629,13.002],[100.0391,12.9629],[100.0292,12.9347],[100.025,12.8933],[100.0147,12.8602],[100.0004,12.8386],[99.9941,12.8228],[99.996,12.8152],[99.9883,12.8051],[99.9752,12.7697],[99.9651,12.7302],[99.9641,12.6901],[99.9558,12.6362],[99.9577,12.5778],[100.734,12.5876],[100.9535,12.5918],[100.9623,12.5952]]],"crs":null},"type":"Feature","properties":{"name_eng":"Internal Water","name_th":"น่านน้ำภายใน"}},{"geometry":{"type":"MultiPolygon","coordinates":[[[[100.1836,7.5092],[100.1964,7.5055],[100.2,7.4982],[100.2037,7.4975],[100.2015,7.4954],[100.2036,7.4918],[100.21,7.492],[100.2149,7.4873],[100.2215,7.497],[100.2273,7.4981],[100.2235,7.4812],[100.2265,7.4627],[100.2368,7.4346],[100.2503,7.4181],[100.2548,7.3938],[100.258,7.3873],[100.268,7.3851],[100.2752,7.3792],[100.2864,7.3605],[100.2923,7.3613],[100.2921,7.3577],[100.2991,7.3533],[100.3004,7.3381],[100.3034,7.3361],[100.3143,7.3383],[100.3181,7.3488],[100.3262,7.3539],[100.3298,7.353],[100.3311,7.3471],[100.352,7.3399],[100.3626,7.3283],[100.3541,7.3201],[100.355,7.3096],[100.3683,7.3107],[100.3715,7.3041],[100.3777,7.3117],[100.3784,7.2986],[100.3839,7.2887],[100.3827,7.2792],[100.386,7.274],[100.4002,7.2618],[100.4244,7.2595],[100.4382,7.2492],[100.3996,7.2339],[100.4006,7.2296],[100.3878,7.2162],[100.3906,7.2128],[100.3875,7.2121],[100.3902,7.2013],[100.4,7.1993],[100.4027,7.1954],[100.4087,7.1995],[100.4075,7.2022],[100.4124,7.2007],[100.4099,7.1891],[100.4153,7.1848],[100.413,7.1778],[100.4208,7.1594],[100.4318,7.1578],[100.4395,7.151],[100.4455,7.153],[100.4461,7.149],[100.4391,7.1471],[100.4366,7.1428],[100.439,7.1466],[100.4477,7.1494],[100.4517,7.1594],[100.454,7.147],[100.4568,7.1473],[100.4554,7.1441],[100.4611,7.1422],[100.4684,7.1565],[100.4741,7.1457],[100.4841,7.1424],[100.4894,7.1336],[100.5117,7.1385],[100.5235,7.1361],[100.5441,7.1386],[100.5669,7.153],[100.5702,7.1612],[100.5903,7.1703],[100.5947,7.1834],[100.5888,7.184],[100.5916,7.1877],[100.5771,7.225],[100.5781,7.2285],[100.5688,7.2263],[100.5745,7.2226],[100.5728,7.2103],[100.5814,7.1953],[100.5772,7.1908],[100.5664,7.1886],[100.5646,7.1936],[100.5572,7.1983],[100.5468,7.196],[100.5455,7.2031],[100.5368,7.213],[100.4814,7.2541],[100.469,7.2568],[100.4591,7.2518],[100.4421,7.251],[100.4127,7.2671],[100.4317,7.2778],[100.4319,7.2861],[100.4277,7.293],[100.4319,7.3072],[100.4248,7.32],[100.4257,7.3596],[100.4206,7.3682],[100.4051,7.3804],[100.4113,7.4051],[100.408,7.4317],[100.4124,7.4611],[100.4064,7.5104],[100.3926,7.5643],[100.3535,7.5793],[100.3223,7.5779],[100.3096,7.5632],[100.3007,7.5372],[100.2939,7.5292],[100.29,7.5156],[100.2934,7.5071],[100.2832,7.5208],[100.2745,7.5213],[100.2669,7.5283],[100.269,7.5423],[100.2646,7.5476],[100.2647,7.5571],[100.2795,7.5706],[100.2891,7.5947],[100.3045,7.5844],[100.3107,7.5881],[100.3178,7.6081],[100.3212,7.6355],[100.3203,7.6757],[100.311,7.7298],[100.3002,7.767],[100.2799,7.8021],[100.2584,7.7934],[100.259,7.7904],[100.252,7.7824],[100.2385,7.7789],[100.2107,7.7856],[100.2091,7.7816],[100.201,7.7779],[100.2038,7.7745],[100.1915,7.7634],[100.1904,7.7585],[100.1808,7.7564],[100.1702,7.745],[100.1463,7.7285],[100.1501,7.6405],[100.153,7.6309],[100.1593,7.6257],[100.1554,7.6165],[100.1686,7.5693],[100.1732,7.5668],[100.17,7.5581],[100.179,7.5249],[100.1765,7.5188],[100.1795,7.517],[100.1794,7.512],[100.1845,7.5141],[100.1836,7.5092]]],[[[100.1545,7.8086],[100.14,7.8073],[100.1311,7.8016],[100.1264,7.795],[100.128,7.7892],[100.1242,7.7876],[100.1229,7.7728],[100.127,7.7756],[100.1341,7.7686],[100.1724,7.7633],[100.1825,7.7694],[100.1842,7.7772],[100.1817,7.783],[100.1693,7.7855],[100.1819,7.787],[100.1838,7.7936],[100.1739,7.8035],[100.1545,7.8086]],[[100.1835,7.5092],[100.1835,7.5092],[100.1836,7.5092],[100.1835,7.5092]]]],"crs":null},"type":"Feature","properties":{"name_eng":"Internal Water","name_th":"น่านน้ำภายใน"}}],"type":"FeatureCollection","properties":{"exceededTransferLimit":false}}